Sat:
  Predict:
    EAzimuth: 329
    Elevation: 13
    Length of pass: 780
    SAzimuth: 214
    time used UTC: 20160115013005
    timezone used: 1
    used TLE line1: 1 32789U 08021G   16013.91161196 +.00005283 +00000-0 +40684-3
      0  9998
    used TLE line2: 2 32789 097.6278 075.8047 0013130 067.8081 292.4535 15.02008740418582
  Record:
    Start of recording: 201601172255
    num_sample: 195000000
    sample_rate: 250000
    time1 UTC: ''
    time2 UTC: ''
    time3 LT: ''
  State:
    Antenna: 1
    NORADID: '32789'
    Name: Delfi-C3
    Priority: 1
    Tuning Frequency: 145870000
  Station:
    Height: 0.0
    Lat: 51.01566
    Lon: 4.006819722222223
    Name: DopTrack
